CCSDS_OMM_VERS = 2.0
CREATION_DATE  = 
ORIGINATOR     = 

OBJECT_NAME    = ALOS (DAICHI)
OBJECT_ID      = 2006-002A
CENTER_NAME    = EARTH
REF_FRAME      = TEME
TIME_SYSTEM    = UTC
MEAN_ELEMENT_THEORY = SGP/SGP4

EPOCH          = 2025-12-13T13:56:05.660448
MEAN_MOTION    = 14.69491536
ECCENTRICITY   = .00011758
INCLINATION    = 98.1091
RA_OF_ASC_NODE = 299.0622
ARG_OF_PERICENTER = 116.4026
MEAN_ANOMALY   = 243.7301

EPHEMERIS_TYPE = 0
CLASSIFICATION_TYPE = U
NORAD_CAT_ID   = 28931
ELEMENT_SET_NO = 999
REV_AT_EPOCH   = 6083
BSTAR          = .35590517E-3
MEAN_MOTION_DOT = .2061E-4
MEAN_MOTION_DDOT = 0

CCSDS_OMM_VERS = 2.0
CREATION_DATE  = 
ORIGINATOR     = 

OBJECT_NAME    = H-2A R/B
OBJECT_ID      = 2006-002B
CENTER_NAME    = EARTH
REF_FRAME      = TEME
TIME_SYSTEM    = UTC
MEAN_ELEMENT_THEORY = SGP/SGP4

EPOCH          = 2025-12-13T15:27:42.092352
MEAN_MOTION    = 15.14596184
ECCENTRICITY   = .00545414
INCLINATION    = 98.2312
RA_OF_ASC_NODE = 122.4664
ARG_OF_PERICENTER = 173.2045
MEAN_ANOMALY   = 186.9936

EPHEMERIS_TYPE = 0
CLASSIFICATION_TYPE = U
NORAD_CAT_ID   = 28932
ELEMENT_SET_NO = 999
REV_AT_EPOCH   = 8140
BSTAR          = .64589998E-3
MEAN_MOTION_DOT = .12307E-3
MEAN_MOTION_DDOT = 0

CCSDS_OMM_VERS = 2.0
CREATION_DATE  = 
ORIGINATOR     = 

OBJECT_NAME    = RESURS-DK 1
OBJECT_ID      = 2006-021A
CENTER_NAME    = EARTH
REF_FRAME      = TEME
TIME_SYSTEM    = UTC
MEAN_ELEMENT_THEORY = SGP/SGP4

EPOCH          = 2025-12-13T16:34:03.544320
MEAN_MOTION    = 15.12168188
ECCENTRICITY   = .00071518
INCLINATION    = 69.9333
RA_OF_ASC_NODE = 99.3818
ARG_OF_PERICENTER = 258.4123
MEAN_ANOMALY   = 101.6240

EPHEMERIS_TYPE = 0
CLASSIFICATION_TYPE = U
NORAD_CAT_ID   = 29228
ELEMENT_SET_NO = 999
REV_AT_EPOCH   = 7452
BSTAR          = .21648427E-3
MEAN_MOTION_DOT = .3638E-4
MEAN_MOTION_DDOT = 0

CCSDS_OMM_VERS = 2.0
CREATION_DATE  = 
ORIGINATOR     = 

OBJECT_NAME    = CZ-4B R/B
OBJECT_ID      = 2006-046C
CENTER_NAME    = EARTH
REF_FRAME      = TEME
TIME_SYSTEM    = UTC
MEAN_ELEMENT_THEORY = SGP/SGP4

EPOCH          = 2025-12-13T15:03:14.668704
MEAN_MOTION    = 15.15884590
ECCENTRICITY   = .0033345
INCLINATION    = 97.5738
RA_OF_ASC_NODE = 27.7630
ARG_OF_PERICENTER = 203.3131
MEAN_ANOMALY   = 156.6592

EPHEMERIS_TYPE = 0
CLASSIFICATION_TYPE = U
NORAD_CAT_ID   = 29507
ELEMENT_SET_NO = 999
REV_AT_EPOCH   = 4700
BSTAR          = .30514792E-3
MEAN_MOTION_DOT = .5854E-4
MEAN_MOTION_DDOT = 0

CCSDS_OMM_VERS = 2.0
CREATION_DATE  = 
ORIGINATOR     = 

OBJECT_NAME    = CZ-2C R/B
OBJECT_ID      = 2007-010B
CENTER_NAME    = EARTH
REF_FRAME      = TEME
TIME_SYSTEM    = UTC
MEAN_ELEMENT_THEORY = SGP/SGP4

EPOCH          = 2025-12-13T13:32:21.630336
MEAN_MOTION    = 14.20210438
ECCENTRICITY   = .00590128
INCLINATION    = 98.3975
RA_OF_ASC_NODE = 100.1735
ARG_OF_PERICENTER = 183.6092
MEAN_ANOMALY   = 176.4668

EPHEMERIS_TYPE = 0
CLASSIFICATION_TYPE = U
NORAD_CAT_ID   = 31114
ELEMENT_SET_NO = 999
REV_AT_EPOCH   = 96749
BSTAR          = .13013239E-3
MEAN_MOTION_DOT = .242E-5
MEAN_MOTION_DDOT = 0

CCSDS_OMM_VERS = 2.0
CREATION_DATE  = 
ORIGINATOR     = 

OBJECT_NAME    = COSMO-SKYMED 1
OBJECT_ID      = 2007-023A
CENTER_NAME    = EARTH
REF_FRAME      = TEME
TIME_SYSTEM    = UTC
MEAN_ELEMENT_THEORY = SGP/SGP4

EPOCH          = 2025-12-13T15:47:17.342304
MEAN_MOTION    = 14.95773595
ECCENTRICITY   = .0001295
INCLINATION    = 97.8834
RA_OF_ASC_NODE = 173.0628
ARG_OF_PERICENTER = 90.4268
MEAN_ANOMALY   = 269.7101

EPHEMERIS_TYPE = 0
CLASSIFICATION_TYPE = U
NORAD_CAT_ID   = 31598
ELEMENT_SET_NO = 999
REV_AT_EPOCH   = 204
BSTAR          = .45383365E-3
MEAN_MOTION_DOT = .5003E-4
MEAN_MOTION_DDOT = 0

CCSDS_OMM_VERS = 2.0
CREATION_DATE  = 
ORIGINATOR     = 

OBJECT_NAME    = COSMOS 2428
OBJECT_ID      = 2007-029A
CENTER_NAME    = EARTH
REF_FRAME      = TEME
TIME_SYSTEM    = UTC
MEAN_ELEMENT_THEORY = SGP/SGP4

EPOCH          = 2025-12-13T12:24:41.386752
MEAN_MOTION    = 14.12889993
ECCENTRICITY   = .00037086
INCLINATION    = 70.9368
RA_OF_ASC_NODE = 24.2479
ARG_OF_PERICENTER = 22.3403
MEAN_ANOMALY   = 337.7879

EPHEMERIS_TYPE = 0
CLASSIFICATION_TYPE = U
NORAD_CAT_ID   = 31792
ELEMENT_SET_NO = 999
REV_AT_EPOCH   = 95192
BSTAR          = .92347094E-4
MEAN_MOTION_DOT = .124E-5
MEAN_MOTION_DDOT = 0

CCSDS_OMM_VERS = 2.0
CREATION_DATE  = 
ORIGINATOR     = 

OBJECT_NAME    = SL-16 R/B
OBJECT_ID      = 2007-029B
CENTER_NAME    = EARTH
REF_FRAME      = TEME
TIME_SYSTEM    = UTC
MEAN_ELEMENT_THEORY = SGP/SGP4

EPOCH          = 2025-12-13T11:01:30.184032
MEAN_MOTION    = 14.14814774
ECCENTRICITY   = .00021406
INCLINATION    = 70.9756
RA_OF_ASC_NODE = 353.6451
ARG_OF_PERICENTER = 262.4107
MEAN_ANOMALY   = 207.5567

EPHEMERIS_TYPE = 0
CLASSIFICATION_TYPE = U
NORAD_CAT_ID   = 31793
ELEMENT_SET_NO = 999
REV_AT_EPOCH   = 95317
BSTAR          = .1882637E-4
MEAN_MOTION_DOT = -.12E-6
MEAN_MOTION_DDOT = 0

CCSDS_OMM_VERS = 2.0
CREATION_DATE  = 
ORIGINATOR     = 

OBJECT_NAME    = KORONAS-FOTON
OBJECT_ID      = 2009-003A
CENTER_NAME    = EARTH
REF_FRAME      = TEME
TIME_SYSTEM    = UTC
MEAN_ELEMENT_THEORY = SGP/SGP4

EPOCH          = 2025-12-13T11:14:49.679520
MEAN_MOTION    = 15.41215349
ECCENTRICITY   = .00132953
INCLINATION    = 82.4315
RA_OF_ASC_NODE = 5.3508
ARG_OF_PERICENTER = 106.0551
MEAN_ANOMALY   = 254.2161

EPHEMERIS_TYPE = 0
CLASSIFICATION_TYPE = U
NORAD_CAT_ID   = 33504
ELEMENT_SET_NO = 999
REV_AT_EPOCH   = 93245
BSTAR          = .47301177E-3
MEAN_MOTION_DOT = .19756E-3
MEAN_MOTION_DDOT = 0

CCSDS_OMM_VERS = 2.0
CREATION_DATE  = 
ORIGINATOR     = 

OBJECT_NAME    = CZ-2C R/B
OBJECT_ID      = 2011-030B
CENTER_NAME    = EARTH
REF_FRAME      = TEME
TIME_SYSTEM    = UTC
MEAN_ELEMENT_THEORY = SGP/SGP4

EPOCH          = 2025-12-13T15:04:51.504960
MEAN_MOTION    = 14.80906645
ECCENTRICITY   = .0051321
INCLINATION    = 97.8411
RA_OF_ASC_NODE = 301.7153
ARG_OF_PERICENTER = 270.6276
MEAN_ANOMALY   = 263.0574

EPHEMERIS_TYPE = 0
CLASSIFICATION_TYPE = U
NORAD_CAT_ID   = 37731
ELEMENT_SET_NO = 999
REV_AT_EPOCH   = 77735
BSTAR          = .28025829E-3
MEAN_MOTION_DOT = .216E-4
MEAN_MOTION_DDOT = 0

CCSDS_OMM_VERS = 2.0
CREATION_DATE  = 
ORIGINATOR     = 

OBJECT_NAME    = H-2A R/B
OBJECT_ID      = 2012-025E
CENTER_NAME    = EARTH
REF_FRAME      = TEME
TIME_SYSTEM    = UTC
MEAN_ELEMENT_THEORY = SGP/SGP4

EPOCH          = 2025-12-13T10:38:10.523040
MEAN_MOTION    = 14.94463073
ECCENTRICITY   = .00436684
INCLINATION    = 98.4603
RA_OF_ASC_NODE = 302.7277
ARG_OF_PERICENTER = 233.7744
MEAN_ANOMALY   = 125.9434

EPHEMERIS_TYPE = 0
CLASSIFICATION_TYPE = U
NORAD_CAT_ID   = 38341
ELEMENT_SET_NO = 999
REV_AT_EPOCH   = 73533
BSTAR          = .49351365E-3
MEAN_MOTION_DOT = .5356E-4
MEAN_MOTION_DDOT = 0

CCSDS_OMM_VERS = 2.0
CREATION_DATE  = 
ORIGINATOR     = 

OBJECT_NAME    = SHIJIAN-16 (SJ-16)
OBJECT_ID      = 2013-057A
CENTER_NAME    = EARTH
REF_FRAME      = TEME
TIME_SYSTEM    = UTC
MEAN_ELEMENT_THEORY = SGP/SGP4

EPOCH          = 2025-12-13T16:12:15.448320
MEAN_MOTION    = 14.91987926
ECCENTRICITY   = .00176279
INCLINATION    = 74.9736
RA_OF_ASC_NODE = 347.8854
ARG_OF_PERICENTER = 317.5249
MEAN_ANOMALY   = 42.4573

EPHEMERIS_TYPE = 0
CLASSIFICATION_TYPE = U
NORAD_CAT_ID   = 39358
ELEMENT_SET_NO = 999
REV_AT_EPOCH   = 65867
BSTAR          = .16729568E-3
MEAN_MOTION_DOT = .1671E-4
MEAN_MOTION_DDOT = 0

