ALOS (DAICHI)           
1 28931U 06002A   25347.58062107  .00002061  00000+0  35591-3 0  9995
2 28931  98.1091 299.0622 0001175 116.4026 243.7301 14.69491536 60832
H-2A R/B                
1 28932U 06002B   25347.64423718  .00012307  00000+0  64590-3 0  9997
2 28932  98.2312 122.4664 0054541 173.2045 186.9936 15.14596184 81406
RESURS-DK 1             
1 29228U 06021A   25347.69031880  .00003638  00000+0  21648-3 0  9991
2 29228  69.9333  99.3818 0007151 258.4123 101.6240 15.12168188 74528
CZ-4B R/B               
1 29507U 06046C   25347.62725311  .00005854  00000+0  30515-3 0  9995
2 29507  97.5738  27.7630 0033345 203.3131 156.6592 15.15884590 47001
CZ-2C R/B               
1 31114U 07010B   25347.56413924  .00000242  00000+0  13013-3 0  9991
2 31114  98.3975 100.1735 0059012 183.6092 176.4668 14.20210438967494
COSMO-SKYMED 1          
1 31598U 07023A   25347.65783961  .00005003  00000+0  45383-3 0  9997
2 31598  97.8834 173.0628 0001295  90.4268 269.7101 14.95773595  2047
COSMOS 2428             
1 31792U 07029A   25347.51714568  .00000124  00000+0  92347-4 0  9993
2 31792  70.9368  24.2479 0003708  22.3403 337.7879 14.12889993951921
SL-16 R/B               
1 31793U 07029B   25347.45937713 -.00000012  00000+0  18826-4 0  9993
2 31793  70.9756 353.6451 0002140 262.4107 207.5567 14.14814774953173
KORONAS-FOTON           
1 33504U 09003A   25347.46863055  .00019756  00000+0  47301-3 0  9990
2 33504  82.4315   5.3508 0013295 106.0551 254.2161 15.41215349932458
CZ-2C R/B               
1 37731U 11030B   25347.62837390  .00002160  00000+0  28026-3 0  9994
2 37731  97.8411 301.7153 0051321 270.6276 263.0574 14.80906645777354
H-2A R/B                
1 38341U 12025E   25347.44317735  .00005356  00000+0  49351-3 0  9997
2 38341  98.4603 302.7277 0043668 233.7744 125.9434 14.94463073735336
SHIJIAN-16 (SJ-16)      
1 39358U 13057A   25347.67517880  .00001671  00000+0  16730-3 0  9991
2 39358  74.9736 347.8854 0017627 317.5249  42.4573 14.91987926658672
